{
  "type": "FeatureCollection",
  "features": [
    {
      "type": "Feature",
      "properties": {
        "norad_id": 34022,
        "name": "COSMOS 2251 DEB",
        "group": "cosmos-2251-debris",
        "lat": -52.36868801993852,
        "lon": -134.85960344340964,
        "alt_km": 752.0728271527578,
        "timestamp": "2025-12-25T16:53:15.057232+00:00",
        "meta_object_name": "COSMOS 2251 DEB",
        "meta_object_id": "1993-036HH",
        "meta_epoch": "2025-12-25T02:43:25.518720",
        "meta_mean_motion": 14.38980199,
        "meta_eccentricity": 0.00230678,
        "meta_inclination": 74.0536,
        "meta_ra_of_asc_node": 247.9957,
        "meta_arg_of_pericenter": 311.0142,
        "meta_mean_anomaly": 177.6525,
        "meta_ephemeris_type": 0,
        "meta_classification_type": "U",
        "meta_norad_cat_id": 34022,
        "meta_element_set_no": 999,
        "meta_rev_at_epoch": 88373,
        "meta_bstar": 0.00019707465,
        "meta_mean_motion_dot": 5.83e-06,
        "meta_mean_motion_ddot": 0,
        "tle_line1": "1 34022U 93036HH  25359.11348980  .00000583  00000+0  19707-3 0  9992",
        "tle_line2": "2 34022  74.0536 247.9957 0023067 311.0142 177.6525 14.38980199883735"
      },
      "geometry": {
        "type": "Point",
        "coordinates": [
          -134.85960344340964,
          -52.36868801993852
        ]
      }
    },
    {
      "type": "Feature",
      "properties": {
        "norad_id": 34023,
        "name": "COSMOS 2251 DEB",
        "group": "cosmos-2251-debris",
        "lat": -57.54405430125613,
        "lon": -159.0205556376689,
        "alt_km": 750.8651879937588,
        "timestamp": "2025-12-25T16:53:15.057242+00:00",
        "meta_object_name": "COSMOS 2251 DEB",
        "meta_object_id": "1993-036HJ",
        "meta_epoch": "2025-12-25T02:44:20.664384",
        "meta_mean_motion": 14.40584152,
        "meta_eccentricity": 0.00189087,
        "meta_inclination": 74.0238,
        "meta_ra_of_asc_node": 228.8427,
        "meta_arg_of_pericenter": 322.7712,
        "meta_mean_anomaly": 159.9305,
        "meta_ephemeris_type": 0,
        "meta_classification_type": "U",
        "meta_norad_cat_id": 34023,
        "meta_element_set_no": 999,
        "meta_rev_at_epoch": 88392,
        "meta_bstar": 0.00026030132,
        "meta_mean_motion_dot": 8.05e-06,
        "meta_mean_motion_ddot": 0,
        "tle_line1": "1 34023U 93036HJ  25359.11412806  .00000805  00000+0  26030-3 0  9996",
        "tle_line2": "2 34023  74.0238 228.8427 0018908 322.7712 159.9305 14.40584152883927"
      },
      "geometry": {
        "type": "Point",
        "coordinates": [
          -159.0205556376689,
          -57.54405430125613
        ]
      }
    },
    {
      "type": "Feature",
      "properties": {
        "norad_id": 34024,
        "name": "COSMOS 2251 DEB",
        "group": "cosmos-2251-debris",
        "lat": 62.49852151304911,
        "lon": -34.4383798130461,
        "alt_km": 766.4559241223633,
        "timestamp": "2025-12-25T16:53:15.057252+00:00",
        "meta_object_name": "COSMOS 2251 DEB",
        "meta_object_id": "1993-036HK",
        "meta_epoch": "2025-12-25T05:24:22.584960",
        "meta_mean_motion": 14.35409875,
        "meta_eccentricity": 0.00215721,
        "meta_inclination": 74.047,
        "meta_ra_of_asc_node": 293.1089,
        "meta_arg_of_pericenter": 341.2016,
        "meta_mean_anomaly": 134.8477,
        "meta_ephemeris_type": 0,
        "meta_classification_type": "U",
        "meta_norad_cat_id": 34024,
        "meta_element_set_no": 999,
        "meta_rev_at_epoch": 88203,
        "meta_bstar": 0.00020067017,
        "meta_mean_motion_dot": 5.51e-06,
        "meta_mean_motion_ddot": 0,
        "tle_line1": "1 34024U 93036HK  25359.22526140  .00000551  00000+0  20067-3 0  9998",
        "tle_line2": "2 34024  74.0470 293.1089 0021572 341.2016 134.8477 14.35409875882034"
      },
      "geometry": {
        "type": "Point",
        "coordinates": [
          -34.4383798130461,
          62.49852151304911
        ]
      }
    },
    {
      "type": "Feature",
      "properties": {
        "norad_id": 34026,
        "name": "COSMOS 2251 DEB",
        "group": "cosmos-2251-debris",
        "lat": -64.48688002739316,
        "lon": -81.89273856824464,
        "alt_km": 1087.1381771819797,
        "timestamp": "2025-12-25T16:53:15.057263+00:00",
        "meta_object_name": "COSMOS 2251 DEB",
        "meta_object_id": "1993-036HM",
        "meta_epoch": "2025-12-25T00:00:06.887808",
        "meta_mean_motion": 13.65323017,
        "meta_eccentricity": 0.0349583,
        "meta_inclination": 73.7668,
        "meta_ra_of_asc_node": 316.8973,
        "meta_arg_of_pericenter": 185.0257,
        "meta_mean_anomaly": 244.2207,
        "meta_ephemeris_type": 0,
        "meta_classification_type": "U",
        "meta_norad_cat_id": 34026,
        "meta_element_set_no": 999,
        "meta_rev_at_epoch": 83699,
        "meta_bstar": 0.00042875556,
        "meta_mean_motion_dot": 5.06e-06,
        "meta_mean_motion_ddot": 0,
        "tle_line1": "1 34026U 93036HM  25359.00007972  .00000506  00000+0  42876-3 0  9995",
        "tle_line2": "2 34026  73.7668 316.8973 0349583 185.0257 244.2207 13.65323017836998"
      },
      "geometry": {
        "type": "Point",
        "coordinates": [
          -81.89273856824464,
          -64.48688002739316
        ]
      }
    },
    {
      "type": "Feature",
      "properties": {
        "norad_id": 34028,
        "name": "COSMOS 2251 DEB",
        "group": "cosmos-2251-debris",
        "lat": 11.250639451586355,
        "lon": -29.327823458585325,
        "alt_km": 1169.2648478127576,
        "timestamp": "2025-12-25T16:53:15.057274+00:00",
        "meta_object_name": "COSMOS 2251 DEB",
        "meta_object_id": "1993-036HP",
        "meta_epoch": "2025-12-25T00:47:28.404960",
        "meta_mean_motion": 13.20633459,
        "meta_eccentricity": 0.05434721,
        "meta_inclination": 73.8839,
        "meta_ra_of_asc_node": 328.4031,
        "meta_arg_of_pericenter": 104.1361,
        "meta_mean_anomaly": 326.46,
        "meta_ephemeris_type": 0,
        "meta_classification_type": "U",
        "meta_norad_cat_id": 34028,
        "meta_element_set_no": 999,
        "meta_rev_at_epoch": 81170,
        "meta_bstar": 0.00048234049,
        "meta_mean_motion_dot": 4.09e-06,
        "meta_mean_motion_ddot": 0,
        "tle_line1": "1 34028U 93036HP  25359.03296765  .00000409  00000+0  48234-3 0  9996",
        "tle_line2": "2 34028  73.8839 328.4031 0543472 104.1361 326.4600 13.20633459811703"
      },
      "geometry": {
        "type": "Point",
        "coordinates": [
          -29.327823458585325,
          11.250639451586355
        ]
      }
    },
    {
      "type": "Feature",
      "properties": {
        "norad_id": 34031,
        "name": "COSMOS 2251 DEB",
        "group": "cosmos-2251-debris",
        "lat": -47.54561586997814,
        "lon": 92.68381754485806,
        "alt_km": 697.1326674913453,
        "timestamp": "2025-12-25T16:53:15.057290+00:00",
        "meta_object_name": "COSMOS 2251 DEB",
        "meta_object_id": "1993-036HS",
        "meta_epoch": "2025-12-25T07:23:16.157760",
        "meta_mean_motion": 14.59828959,
        "meta_eccentricity": 0.00228324,
        "meta_inclination": 74.013,
        "meta_ra_of_asc_node": 111.7019,
        "meta_arg_of_pericenter": 231.5374,
        "meta_mean_anomaly": 158.8136,
        "meta_ephemeris_type": 0,
        "meta_classification_type": "U",
        "meta_norad_cat_id": 34031,
        "meta_element_set_no": 999,
        "meta_rev_at_epoch": 88749,
        "meta_bstar": 0.001364568,
        "meta_mean_motion_dot": 6.524e-05,
        "meta_mean_motion_ddot": 0,
        "tle_line1": "1 34031U 93036HS  25359.30782590  .00006524  00000+0  13646-2 0  9998",
        "tle_line2": "2 34031  74.0130 111.7019 0022832 231.5374 158.8136 14.59828959887498"
      },
      "geometry": {
        "type": "Point",
        "coordinates": [
          92.68381754485806,
          -47.54561586997814
        ]
      }
    },
    {
      "type": "Feature",
      "properties": {
        "norad_id": 34035,
        "name": "COSMOS 2251 DEB",
        "group": "cosmos-2251-debris",
        "lat": 62.89031467205193,
        "lon": 110.83767944718706,
        "alt_km": 739.6080610135205,
        "timestamp": "2025-12-25T16:53:15.057301+00:00",
        "meta_object_name": "COSMOS 2251 DEB",
        "meta_object_id": "1993-036HW",
        "meta_epoch": "2025-12-25T00:07:16.010688",
        "meta_mean_motion": 14.52098741,
        "meta_eccentricity": 0.00452775,
        "meta_inclination": 74.0664,
        "meta_ra_of_asc_node": 326.0709,
        "meta_arg_of_pericenter": 325.2998,
        "meta_mean_anomaly": 96.1161,
        "meta_ephemeris_type": 0,
        "meta_classification_type": "U",
        "meta_norad_cat_id": 34035,
        "meta_element_set_no": 999,
        "meta_rev_at_epoch": 88144,
        "meta_bstar": 0.001898642,
        "meta_mean_motion_dot": 7.77e-05,
        "meta_mean_motion_ddot": 0,
        "tle_line1": "1 34035U 93036HW  25359.00504642  .00007770  00000+0  18986-2 0  9995",
        "tle_line2": "2 34035  74.0664 326.0709 0045277 325.2998  96.1161 14.52098741881444"
      },
      "geometry": {
        "type": "Point",
        "coordinates": [
          110.83767944718706,
          62.89031467205193
        ]
      }
    }
  ]
}